NORAD_CAT_ID,OBJECT_NAME,OBJECT_TYPE,EPOCH,MEAN_MOTION,ECCENTRICITY,INCLINATION,RA_OF_ASC_NODE,ARG_OF_PERICENTER,MEAN_ANOMALY,BSTAR,MEAN_MOTION_DOT,MEAN_MOTION_DDOT,TLE_LINE0,TLE_LINE1,TLE_LINE2,SEMIMAJOR_AXIS,PERIOD,APOGEE,PERIGEE,DECAYED
53393.0,STARLINK-4530,PAYLOAD,2024-04-15 16:55:18,15.08841712,0.0001439,53.2194,355.0463,110.9291,249.1856,9.4298e-05,1.213e-05,0.0,0 STARLINK-4530,1 53393U 22097F   24106.70507343  .00001213  00000-0  94298-4 0  9998,2 53393  53.2194 355.0463 0001439 110.9291 249.1856 15.08841712 93403,6917.875,95.437,540.736,538.745,0.0
53393.0,STARLINK-4530,PAYLOAD,2024-04-15 21:41:27,15.08839757,0.0001418,53.2194,354.1535,113.2815,246.8327,7.4063e-05,8.91e-06,0.0,0 STARLINK-4530,1 53393U 22097F   24106.90379522  .00000891  00000-0  74063-4 0  9995,2 53393  53.2194 354.1535 0001418 113.2815 246.8327 15.08839757 94086,6917.881,95.438,540.727,538.765,0.0
53393.0,STARLINK-4530,PAYLOAD,2024-04-16 08:49:09,15.08854816,0.0001462,53.2204,352.0774,113.2248,246.8898,0.00018462,2.653e-05,0.0,0 STARLINK-4530,1 53393U 22097F   24107.36746557  .00002653  00000-0  18462-3 0  9990,2 53393  53.2204 352.0774 0001462 113.2248 246.8898 15.08854816 93501,6917.835,95.437,540.711,538.689,0.0
53393.0,STARLINK-4530,PAYLOAD,2024-04-16 19:56:54,15.0880669,8.83e-05,53.2178,349.993,93.3477,266.7616,-0.00022407,-3.849e-05,0.0,0 STARLINK-4530,1 53393U 22097F   24107.83118792 -.00003849  00000-0 -22407-3 0  9990,2 53393  53.2178 349.9930 0000883  93.3477 266.7616 15.08806690 93571,6917.982,95.44,540.458,539.236,0.0
53393.0,STARLINK-4530,PAYLOAD,2024-04-16 21:32:16,15.08804379,9.61e-05,53.2176,349.6961,91.7741,268.3361,-0.00042792,-7.085e-05,0.0,0 STARLINK-4530,1 53393U 22097F   24107.89741725 -.00007085  00000-0 -42792-3 0  9999,2 53393  53.2176 349.6961 0000961  91.7741 268.3361 15.08804379 94234,6917.989,95.44,540.519,539.189,0.0
53393.0,STARLINK-4530,PAYLOAD,2024-04-17 02:18:26,15.08802515,0.0001002,53.2182,348.8029,101.6998,258.4107,-0.00041799,-6.927e-05,0.0,0 STARLINK-4530,1 53393U 22097F   24108.09614143 -.00006927  00000-0 -41799-3 0  9995,2 53393  53.2182 348.8029 0001002 101.6998 258.4107 15.08802515 93618,6917.995,95.44,540.553,539.167,0.0
53393.0,STARLINK-4530,PAYLOAD,2024-04-17 19:47:41,15.0882364,7.99e-05,53.2182,345.538,49.9785,310.1277,4.5702e-05,4.39e-06,0.0,0 STARLINK-4530,1 53393U 22097F   24108.82478342  .00000439  00000-0  45702-4 0  9994,2 53393  53.2182 345.5380 0000799  49.9785 310.1277 15.08823640 93720,6917.93,95.439,540.348,539.243,0.0
53393.0,STARLINK-4530,PAYLOAD,2024-04-17 21:23:04,15.08827498,7.99e-05,53.2183,345.2371,67.193,292.9147,8.4259e-05,1.053e-05,0.0,0 STARLINK-4530,1 53393U 22097F   24108.89101915  .00001053  00000-0  84259-4 0  9993,2 53393  53.2183 345.2371 0000799  67.1930 292.9147 15.08827498 94383,6917.919,95.438,540.336,539.231,0.0
53393.0,STARLINK-4530,PAYLOAD,2024-04-18 22:49:14,15.08838664,7.17e-05,53.2179,340.4851,80.6739,279.4334,0.00054819,8.447e-05,0.0,0 STARLINK-4530,1 53393U 22097F   24109.95086134  .00008447  00000-0  54819-3 0  9998,2 53393  53.2179 340.4851 0000717  80.6739 279.4334 15.08838664 94548,6917.884,95.438,540.245,539.253,0.0
53393.0,STARLINK-4530,PAYLOAD,2024-04-19 00:24:37,15.08842467,7.87e-05,53.2183,340.1834,92.8526,267.2556,0.00060904,9.419e-05,0.0,0 STARLINK-4530,1 53393U 22097F   24110.01710001  .00009419  00000-0  60904-3 0  9996,2 53393  53.2183 340.1834 0000787  92.8526 267.2556 15.08842467 93903,6917.873,95.437,540.282,539.193,0.0
53393.0,STARLINK-4530,PAYLOAD,2024-04-19 21:04:36,15.08865235,8.23e-05,53.2183,336.3144,80.9683,279.1402,0.00035008,5.292e-05,0.0,0 STARLINK-4530,1 53393U 22097F   24110.87820372  .00005292  00000-0  35008-3 0  9995,2 53393  53.2183 336.3144 0000823  80.9683 279.1402 15.08865235 94032,6917.803,95.436,540.238,539.099,0.0
53393.0,STARLINK-4530,PAYLOAD,2024-04-20 14:33:51,15.08852136,0.0001014,53.2175,333.0451,78.8632,281.2474,1.5764e-05,-3.7e-07,0.0,0 STARLINK-4530,1 53393U 22097F   24111.60684145 -.00000037  00000-0  15764-4 0  9994,2 53393  53.2175 333.0451 0001014  78.8632 281.2474 15.08852136 94793,6917.843,95.437,540.41,539.007,0.0
53393.0,STARLINK-4530,PAYLOAD,2024-04-20 20:55:23,15.08844203,0.0001429,53.2181,331.8458,152.2491,207.8578,-0.00013537,-2.442e-05,0.0,0 STARLINK-4530,1 53393U 22097F   24111.87179937 -.00002442  00000-0 -13537-3 0  9999,2 53393  53.2181 331.8458 0001429 152.2491 207.8578 15.08844203 94181,6917.868,95.437,540.721,538.744,0.0
53393.0,STARLINK-4530,PAYLOAD,2024-04-21 14:24:38,15.08835499,8.09e-05,53.2173,328.5813,78.3286,281.7797,-9.3841e-05,-1.781e-05,0.0,0 STARLINK-4530,1 53393U 22097F   24112.60044977 -.00001781  00000-0 -93841-4 0  9998,2 53393  53.2173 328.5813 0000809  78.3286 281.7797 15.08835499 94946,6917.894,95.438,540.319,539.199,0.0
53393.0,STARLINK-4530,PAYLOAD,2024-04-21 20:46:11,15.08847271,0.0001043,53.2179,327.3939,90.0317,270.0795,0.00010813,1.434e-05,0.0,0 STARLINK-4530,1 53393U 22097F   24112.86540585  .00001434  00000-0  10813-3 0  9992,2 53393  53.2179 327.3939 0001043  90.0317 270.0795 15.08847271 94989,6917.858,95.437,540.445,539.002,0.0
53393.0,STARLINK-4530,PAYLOAD,2024-04-21 23:56:57,15.0885128,0.000113,53.2182,326.7969,115.5796,244.5313,0.00021031,3.062e-05,0.0,0 STARLINK-4530,1 53393U 22097F   24112.99788319  .00003062  00000-0  21031-3 0  9998,2 53393  53.2182 326.7969 0001130 115.5796 244.5313 15.08851280 94358,6917.846,95.437,540.493,538.929,0.0
53393.0,STARLINK-4530,PAYLOAD,2024-04-22 20:36:58,15.0883597,0.00014,53.2177,322.9302,132.0541,228.057,0.00020311,2.946e-05,0.0,0 STARLINK-4530,1 53393U 22097F   24113.85901049  .00002946  00000-0  20311-3 0  9991,2 53393  53.2177 322.9302 0001400 132.0541 228.0570 15.08835970 94487,6917.893,95.438,540.726,538.789,0.0
53393.0,STARLINK-4530,PAYLOAD,2024-04-22 23:47:44,15.08836583,0.0001243,53.2177,322.3357,129.044,231.0663,0.00016194,2.29e-05,0.0,0 STARLINK-4530,1 53393U 22097F   24113.99149018  .00002290  00000-0  16194-3 0  9992,2 53393  53.2177 322.3357 0001243 129.0440 231.0663 15.08836583 95153,6917.891,95.438,540.616,538.896,0.0
53393.0,STARLINK-4530,PAYLOAD,2024-04-23 20:27:45,15.08839507,0.0001032,53.2178,318.4693,103.8246,256.2861,-2.7169e-05,-7.2e-06,0.0,0 STARLINK-4530,1 53393U 22097F   24114.85261322 -.00000720  00000-0 -27169-4 0  9994,2 53393  53.2178 318.4693 0001032 103.8246 256.2861 15.08839507 95285,6917.882,95.438,540.461,539.033,0.0
53393.0,STARLINK-4530,PAYLOAD,2024-04-23 23:38:31,15.08840762,9.83e-05,53.2177,317.8741,99.587,260.5233,-2.249e-05,-6.46e-06,0.0,0 STARLINK-4530,1 53393U 22097F   24114.98509210 -.00000646  00000-0 -22490-4 0  9998,2 53393  53.2177 317.8741 0000983  99.5870 260.5233 15.08840762 94655,6917.878,95.438,540.423,539.063,0.0
53393.0,STARLINK-4530,PAYLOAD,2024-04-24 20:18:33,15.08833649,9.8e-05,53.2181,314.0076,88.9225,271.188,7.9109e-05,9.71e-06,0.0,0 STARLINK-4530,1 53393U 22097F   24115.84621619  .00000971  00000-0  79109-4 0  9990,2 53393  53.2181 314.0076 0000980  88.9225 271.1880 15.08833649 95432,6917.9,95.438,540.443,539.087,0.0
53393.0,STARLINK-4530,PAYLOAD,2024-04-25 18:33:57,15.08837064,9.57e-05,53.2181,309.8445,89.7774,270.3328,6.2665e-05,7.1e-06,0.0,0 STARLINK-4530,1 53393U 22097F   24116.77357720  .00000710  00000-0  62665-4 0  9992,2 53393  53.2181 309.8445 0000957  89.7774 270.3328 15.08837064 95574,6917.889,95.438,540.416,539.092,0.0
53393.0,STARLINK-4530,PAYLOAD,2024-04-25 23:20:06,15.08837727,9.57e-05,53.218,308.9529,89.1373,270.9728,6.4948e-05,7.46e-06,0.0,0 STARLINK-4530,1 53393U 22097F   24116.97229787  .00000746  00000-0  64948-4 0  9990,2 53393  53.2180 308.9529 0000957  89.1373 270.9728 15.08837727 94952,6917.887,95.438,540.414,539.09,0.0
53393.0,STARLINK-4530,PAYLOAD,2024-04-26 12:03:11,15.08845316,0.0002163,53.2185,306.5822,82.9741,277.1498,0.00017957,2.571e-05,0.0,0 STARLINK-4530,1 53393U 22097F   24117.50221216  .00002571  00000-0  17957-3 0  9994,2 53393  53.2185 306.5822 0002163  82.9741 277.1498 15.08845316 95034,6917.864,95.437,541.225,538.233,0.0
53393.0,STARLINK-4530,PAYLOAD,2024-04-26 16:49:21,15.08833827,0.0001243,53.2186,305.6899,91.8857,268.2277,1.3168e-05,-7.8e-07,0.0,0 STARLINK-4530,1 53393U 22097F   24117.70094247 -.00000078  00000-0  13168-4 0  9990,2 53393  53.2186 305.6899 0001243  91.8857 268.2277 15.08833827 95067,6917.899,95.438,540.624,538.904,0.0
53393.0,STARLINK-4530,PAYLOAD,2024-04-27 11:53:59,15.08838964,0.0001103,53.2181,302.1212,80.5549,279.5568,-7.962e-05,-1.555e-05,0.0,0 STARLINK-4530,1 53393U 22097F   24118.49582232 -.00001555  00000-0 -79620-4 0  9990,2 53393  53.2181 302.1212 0001103  80.5549 279.5568 15.08838964 95831,6917.884,95.438,540.512,538.986,0.0
53393.0,STARLINK-4530,PAYLOAD,2024-04-27 19:50:54,15.08840946,7.73e-05,53.2171,300.6346,78.4712,281.6367,-6.5063e-05,-1.323e-05,0.0,0 STARLINK-4530,1 53393U 22097F   24118.82701934 -.00001323  00000-0 -65063-4 0  9998,2 53393  53.2171 300.6346 0000773  78.4712 281.6367 15.08840946 95239,6917.877,95.437,540.277,539.208,0.0
53393.0,STARLINK-4530,PAYLOAD,2024-04-27 21:26:17,15.08843671,8.25e-05,53.217,300.3357,93.1556,266.953,-3.9216e-06,-3.5e-06,0.0,0 STARLINK-4530,1 53393U 22097F   24118.89325571 -.00000350  00000-0 -39216-5 0  9995,2 53393  53.2170 300.3357 0000825  93.1556 266.9530 15.08843671 95893,6917.869,95.437,540.305,539.163,0.0
53393.0,STARLINK-4530,PAYLOAD,2024-04-28 05:23:12,15.08851094,9.38e-05,53.2175,298.8498,81.0204,279.0894,2.4306e-05,9.9e-07,0.0,0 STARLINK-4530,1 53393U 22097F   24119.22444938  .00000099  00000-0  24306-4 0  9993,2 53393  53.2175 298.8498 0000938  81.0204 279.0894 15.08851094 95296,6917.846,95.437,540.36,539.063,0.0
53393.0,STARLINK-4530,PAYLOAD,2024-04-28 11:44:44,15.08851947,9.49e-05,53.2179,297.6587,81.0464,279.0635,5.8767e-06,-1.94e-06,0.0,0 STARLINK-4530,1 53393U 22097F   24119.48940811 -.00000194  00000-0  58767-5 0  9998,2 53393  53.2179 297.6587 0000949  81.0464 279.0635 15.08851947 95982,6917.844,95.437,540.365,539.052,0.0
